EOS-6 (OCEANSAT-3)      
1 54361U 22158A   25091.92215632  .00000736  00000+0  21416-3 0  9996
2 54361  98.3479 191.0617 0000635 125.7608 234.3643 14.47047108124029
ASTROCAST-0304          
1 54367U 22158G   25091.89226224  .00066649  00000+0  91748-3 0  9997
2 54367  97.4340 206.9382 0005384 121.0946 239.0838 15.57025475131275
ASTROCAST-0302          
1 54369U 22158J   25091.89770417  .00042228  00000+0  64427-3 0  9998
2 54369  97.4411 207.2627 0005355 116.3319 243.8485 15.54327187131285
ASTROCAST-0301          
1 54370U 22158K   25091.62046321  .00051679  00000+0  77804-3 0  9994
2 54370  97.4470 207.2584 0004485 135.2232 224.9384 15.54654071131240
DONGPO 09               
1 54685U 22167D   25091.92306742  .00016484  00000+0  67917-3 0  9991
2 54685  97.6474 243.6145 0003721 220.4582 139.6378 15.24169587127979
DONGPO 08               
1 54686U 22167E   25091.94750856  .00015242  00000+0  65790-3 0  9991
2 54686  97.6418 242.5626 0010257 277.0235  82.9834 15.22571699127948
2022-167F               
1 54687U 22167F   25091.92613294  .00030607  00000+0  79339-3 0  9990
2 54687  97.6107 244.9867 0005856 204.5256 155.5711 15.38955787128183
DONGPO 10               
1 54689U 22167H   25091.95885790  .00016100  00000+0  68451-3 0  9992
2 54689  97.6506 243.5389 0005881 221.0117 139.0678 15.23104331127958
JILIN-1 GAOFEN 03D48    
1 54695U 22167P   25091.91464322  .00016247  00000+0  68494-3 0  9998
2 54695  97.6437 242.9036 0008071 227.7367 132.3186 15.23374111127959
STAR VIBE               
1 55009U 23001A   25091.89318496  .00015349  00000+0  53564-3 0  9997
2 55009  97.3773 152.2300 0006190 250.3906 109.6667 15.29677976124495
BRO-8                   
1 55011U 23001C   25091.94092081  .00021865  00000+0  82789-3 0  9996
2 55011  97.3841 152.0891 0007960 259.3908 100.6435 15.26907607124447
CONNECTA T1.2           
1 55012U 23001D   25091.91498330  .00016207  00000+0  51581-3 0  9991
2 55012  97.3853 155.1373 0007725 240.3385 119.7088 15.32634640124635
BIRKELAND               
1 55015U 23001G   25091.91769384  .00011301  00000+0  38266-3 0  9999
2 55015  97.3883 155.2709 0006898 235.7073 124.3515 15.30729477124646
ION SCV-008             
1 55051U 23001AU  25091.78694521  .00010734  00000+0  47777-3 0  9990
2 55051  97.5836 177.7758 0018677 120.8549 239.4527 15.21494986124060
ION SCV-007             
1 55060U 23001BD  25091.90916747  .00001023  00000+0  15269-3 0  9993
2 55060  97.9564 157.2932 0011604 325.4546  34.5909 14.76912241121100
FLOCK 4Y-23             
1 55080U 23001BZ  25091.92322554  .00077146  00000+0  10522-2 0  9999
2 55080  97.3798 163.5709 0008639 206.9301 153.1507 15.57207964125232
HUYGENS                 
1 55093U 23001CN  25091.91795188  .00012288  00000+0  41521-3 0  9999
2 55093  97.3813 154.9928 0011064 216.5006 143.5482 15.30739488124669
SHARJAHSAT-1            
1 55104U 23001CZ  25091.90648516  .00017506  00000+0  55784-3 0  9997
2 55104  97.3782 153.6136 0007133 247.1744 112.8745 15.32581829124572
2023-003A               
1 55133U 23003A   25091.94020870  .00050125  00000+0  97300-3 0  9996
2 55133  97.1779 165.1959 0003632 282.3976  77.6868 15.47489958123970
HORUS 1                 
1 55690U 23025A   25091.95049148  .00012728  00000+0  53827-3 0  9991
2 55690  97.3872 169.5223 0003033 176.8181 183.3076 15.23341473116876
HORUS 2                 
1 55844U 23032A   25091.91882968  .00011542  00000+0  48828-3 0  9999
2 55844  97.3930 169.9167 0006115 169.9060 190.2301 15.23343056114309
GLOBAL-19               
1 55982U 23041B   25091.49435399  .00028037  00000+0  71624-3 0  9994
2 55982  42.0034 258.8806 0006798 287.6278  72.3819 15.38872895113899
BRO-9                   
1 56185U 23054H   25091.95005395  .00025019  00000+0  53497-3 0  9999
2 56185  97.3305 352.8027 0004568 185.9500 174.1695 15.44801449110333
ION SCV-010             
1 56192U 23054Q   25091.92663484  .00007929  00000+0  35634-3 0  9996
2 56192  97.4322 342.2585 0014975 312.3362  47.6605 15.21310853109015
GHOST-1                 
1 56195U 23054T   25091.69949472  .00030793  00000+0  60977-3 0  9990
2 56195  97.3316 353.6268 0005888 181.8073 178.3157 15.47004390110352
GHOST-2                 
1 56197U 23054V   25091.68387846  .00046618  00000+0  70692-3 0  9990
2 56197  97.3323 355.8615 0006443 169.9010 190.2375 15.54466567110506
TOMORROW-R1             
1 56199U 23054X   25091.32546641  .00459554  84214-4  13545-2 0  9997
2 56199  97.3235   1.5886 0008405 139.6649 220.5250 15.92567052110835
FACSAT-2                
1 56205U 23054AD  25091.87935136  .00051406  00000+0  64588-3 0  9990
2 56205  97.3364 359.0945 0007474 158.8047 201.3521 15.59512900110702
CONNECTA T2.1           
1 56210U 23054AJ  25091.92799229  .00050907  00000+0  66465-3 0  9994
2 56210  97.3284 357.5282 0006904 160.1650 199.9876 15.58499538110658
TELEOS-2                
1 56310U 23057C   25091.79135976  .00012577  00000+0  10187-2 0  9996
2 56310   9.9874 178.0784 0000779 279.1260  80.8866 14.96424813106576
SNIPE 4                 
1 56744U 23072B   25091.91832862  .00019732  00000+0  78191-3 0  9996
2 56744  97.5478 284.2742 0010022 107.1501 253.0834 15.25398684102501
SNIPE 2                 
1 56745U 23072C   25091.90909819  .00022633  00000+0  87063-3 0  9995
2 56745  97.5589 285.4062 0007907 128.2224 231.9727 15.26377858102526
2023-072G               
1 56749U 23072G   25091.90758682  .00023747  00000+0  84770-3 0  9998
2 56749  97.5236 284.2557 0007140 126.1765 234.0136 15.28840258102610
OTTER PUP               
1 56933U 23084B   25091.91099637  .00035658  00000+0  83775-3 0  9993
2 56933  97.5578 222.2645 0004407  53.5581 306.6072 15.41923144100351
GEISAT PRECURSOR        
1 56934U 23084C   25091.88062904  .00010327  00000+0  39569-3 0  9995
2 56934  97.5664 217.6974 0008267 106.5670 253.6477 15.26692905100022
EIVE                    
1 56937U 23084F   25091.74819206  .00808476  28448-3  21404-2 0  9996
2 56937  97.5392 228.4729 0006199 284.2122  75.8464 15.94684610100747
LAYAN-23                
1 56939U 23084H   25091.90702556  .00062071  00000+0  70484-3 0  9991
2 56939  97.5463 228.3661 0001945 103.8847 256.2626 15.62149672100751
AFRL-XVI                
1 56942U 23084L   25091.91852183  .00043178  00000+0  71435-3 0  9992
2 56942  97.5584 226.4713 0003145  85.2807 274.8804 15.52081880100602
BLACKJACK ACES-3        
1 56950U 23084U   25091.89061068  .00013811  00000+0  63080-3 0  9990
2 56950  97.5646 218.8770 0008285  83.2593 276.9584 15.20671584100102
BLACKJACK ACES-4        
1 56952U 23084W   25091.87887387  .00052231  00000+0  10498-2 0  9993
2 56952  97.5631 223.1314 0005597  77.9345 282.2530 15.46458806100388
BLACKJACK ACES-2        
1 56955U 23084Z   25091.93415651  .00016826  00000+0  76492-3 0  9991
2 56955  97.5646 219.0657 0008989  88.5677 271.6587 15.20783285100125
BLACKJACK ACES-1        
1 56956U 23084AA  25091.90806535  .00017779  00000+0  80685-3 0  9991
2 56956  97.5617 218.8191 0008618  90.0781 270.1442 15.20832502 49838
ION SCV-011             
1 56957U 23084AB  25091.90682915  .00010076  00000+0  43713-3 0  9990
2 56957  98.0995 236.2634 0009158 124.7273 235.4826 15.22535725 98520
GHOST-3                 
1 56958U 23084AC  25091.90260745  .00019242  00000+0  62859-3 0  9990
2 56958  97.5663 219.3556 0009434  81.8009 278.4301 15.31749310100132
TOMORROW-R2             
1 56962U 23084AG  25091.89734475  .00034750  00000+0  88308-3 0  9997
2 56962  97.5620 221.6826 0008265  73.6713 286.5440 15.39520717100295
AFR-1                   
1 56964U 23084AJ  25091.88332023  .00008651  00000+0  36953-3 0  9991
2 56964  97.5698 216.4855 0013044  90.6647 269.6084 15.23044956 99935
DROID.001               
1 56965U 23084AK  25091.90441892  .00042963  00000+0  98811-3 0  9995
2 56965  97.5600 222.3043 0006349  66.9897 293.2019 15.42512007100344
SPEI SATELLES           
1 56991U 23084BT  25091.92028935  .02505537  24942-5  16509-2 0  9998
2 56991  97.5309 231.0414 0011723 288.1990  71.8020 16.16976587100938
METEOR-M2 3             
1 57166U 23091A   25091.91361227  .00000030  00000+0  32099-4 0  9997
2 57166  98.6693 149.3828 0004283  28.4049 331.7363 14.23988874 91715
STRATOSAT-TK 1 (RS52S)  
1 57167U 23091B   25091.91254670  .00045261  00000+0  13735-2 0  9990
2 57167  97.5610 153.4410 0011016 188.7760 171.3291 15.33903272 97465
UMKA 1 (RS40S)          
1 57172U 23091G   25091.91111367  .00009413  00000+0  51750-3 0  9990
2 57172  97.5657 147.6712 0014451 206.1700 153.8803 15.14215260 97081
2023-091H               
1 57173U 23091H   25091.92987233  .00013476  00000+0  67164-3 0  9995
2 57173  97.5651 148.5553 0012254 211.3255 148.7250 15.17613266 97148
2023-091J               
1 57174U 23091J   25091.94144578  .00004690  00000+0  29347-3 0  9994
2 57174  97.5675 145.8587 0013536 221.2219 138.7989 15.09817370 96966
CUBEBEL 2 (EU11S)       
1 57175U 23091K   25091.90778505  .00014439  00000+0  72194-3 0  9994
2 57175  97.5656 148.4315 0012354 214.6566 145.3864 15.17481925 97130
SITRO-AIS 5 (KATYS)     
1 57176U 23091L   25091.91443045  .00014955  00000+0  73652-3 0  9997
2 57176  97.5659 148.8057 0014639 203.0932 156.9645 15.17975853 97153
ZORKIY-2M 1             
1 57177U 23091M   25091.89957345  .00009127  00000+0  50551-3 0  9996
2 57177  97.5693 147.8501 0015407 203.0442 157.0100 15.13947275 97088
CUBESX-HSE 3 (RS42S)    
1 57178U 23091N   25091.92358734  .00014724  00000+0  70714-3 0  9990
2 57178  97.5686 149.4841 0014295 196.0258 164.0526 15.18860260 97180
MONITOR-3 (RS58S)       
1 57180U 23091Q   25091.94617576  .00012983  00000+0  65004-3 0  9998
2 57180  97.5685 148.9417 0014741 197.5521 162.5204 15.17430447 97152
MONITOR-4 (RS57S)       
1 57182U 23091S   25091.94459764  .00013332  00000+0  66669-3 0  9990
2 57182  97.5679 148.8981 0014779 198.0027 162.0685 15.17467594 97151
